STARLINK-2358_new
1 17898C 21021AQ  21326.18246050  .00001644  00000-0  11012-3 0  3269
2 17898  53.0552 112.9257 0001631  80.8996 208.9151 15.06408354    19
STARLINK-2358_old
1 27898C 21021AQ  21325.11616928  .00000520  00000-0  34812-4 0  3251
2 27898  53.0552 117.7121 0001642  80.3529 183.6956 15.06405154    18
